{"type": "FeatureCollection", "features": [ {"type": "Feature", "properties": {"norad_id": 36430, "name": "COSMOS 2251 DEB", "group": "cosmos-2251-debris", "lat": 12.082726795879077, "lon": -58.79056225670027, "alt_km": 822.517200218218, "timestamp": "2025-12-03T19:33:07.374517+00:00", "meta": {"OBJECT_NAME": "COSMOS 2251 DEB", "OBJECT_ID": "1993-036BAD", "EPOCH": "2025-12-02T02:24:06.345216", "MEAN_MOTION": 14.27749233, "ECCENTRICITY": 0.00972219, "INCLINATION": 74.0032, "RA_OF_ASC_NODE": 127.8413, "ARG_OF_PERICENTER": 280.0414, "MEAN_ANOMALY": 78.9776, "EPHEMERIS_TYPE": 0, "CLASSIFICATION_TYPE": "U", "NORAD_CAT_ID": 36430, "ELEMENT_SET_NO": 999, "REV_AT_EPOCH": 64405, "BSTAR": 0.00050130436, "MEAN_MOTION_DOT": 1.275e-05, "MEAN_MOTION_DDOT": 0}, "tle": {"line1": "1 36430U 93036BAD 25336.10007344  .00001275  00000+0  50130-3 0  9991", "line2": "2 36430  74.0032 127.8413 0097221 280.0414  78.9776 14.27749233644055"}}, "geometry": {"type": "Point", "coordinates": [-58.79056225670027, 12.082726795879077]}}, {"type": "Feature", "properties": {"norad_id": 36437, "name": "COSMOS 2251 DEB", "group": "cosmos-2251-debris", "lat": -56.40718447185844, "lon": -102.88451686055346, "alt_km": 654.4060331759401, "timestamp": "2025-12-03T19:33:07.374527+00:00", "meta": {"OBJECT_NAME": "COSMOS 2251 DEB", "OBJECT_ID": "1993-036BAL", "EPOCH": "2025-12-02T22:52:02.631936", "MEAN_MOTION": 14.70397135, "ECCENTRICITY": 0.00231807, "INCLINATION": 73.9435, "RA_OF_ASC_NODE": 53.1, "ARG_OF_PERICENTER": 284.4468, "MEAN_ANOMALY": 75.413, "EPHEMERIS_TYPE": 0, "CLASSIFICATION_TYPE": "U", "NORAD_CAT_ID": 36437, "ELEMENT_SET_NO": 999, "REV_AT_EPOCH": 65907, "BSTAR": 0.0020592737, "MEAN_MOTION_DOT": 0.00012505, "MEAN_MOTION_DDOT": 0}, "tle": {"line1": "1 36437U 93036BAL 25336.95280824  .00012505  00000+0  20593-2 0  9994", "line2": "2 36437  73.9435  53.1000 0023180 284.4468  75.4130 14.70397135659072"}}, "geometry": {"type": "Point", "coordinates": [-102.88451686055346, -56.40718447185844]}}, {"type": "Feature", "properties": {"norad_id": 36439, "name": "COSMOS 2251 DEB", "group": "cosmos-2251-debris", "lat": 25.141906751719503, "lon": -136.79382219152632, "alt_km": 1270.89945211537, "timestamp": "2025-12-03T19:33:07.374537+00:00", "meta": {"OBJECT_NAME": "COSMOS 2251 DEB", "OBJECT_ID": "1993-036BAN", "EPOCH": "2025-11-28T12:20:46.608576", "MEAN_MOTION": 13.47759109, "ECCENTRICITY": 0.04273078, "INCLINATION": 73.9677, "RA_OF_ASC_NODE": 59.4166, "ARG_OF_PERICENTER": 34.2696, "MEAN_ANOMALY": 328.5204, "EPHEMERIS_TYPE": 0, "CLASSIFICATION_TYPE": "U", "NORAD_CAT_ID": 36439, "ELEMENT_SET_NO": 999, "REV_AT_EPOCH": 58421, "BSTAR": 0.00064226543, "MEAN_MOTION_DOT": 6.71e-06, "MEAN_MOTION_DDOT": 0}, "tle": {"line1": "1 36439U 93036BAN 25332.51442834  .00000671  00000+0  64227-3 0  9999", "line2": "2 36439  73.9677  59.4166 0427307  34.2696 328.5204 13.47759109584210"}}, "geometry": {"type": "Point", "coordinates": [-136.79382219152632, 25.141906751719503]}}, {"type": "Feature", "properties": {"norad_id": 36441, "name": "COSMOS 2251 DEB", "group": "cosmos-2251-debris", "lat": -71.88810346253689, "lon": -109.21441812793681, "alt_km": 619.9426412731, "timestamp": "2025-12-03T19:33:07.374547+00:00", "meta": {"OBJECT_NAME": "COSMOS 2251 DEB", "OBJECT_ID": "1993-036BAQ", "EPOCH": "2025-12-03T08:50:22.276032", "MEAN_MOTION": 15.06561199, "ECCENTRICITY": 0.0108665, "INCLINATION": 73.8356, "RA_OF_ASC_NODE": 9.2398, "ARG_OF_PERICENTER": 110.653, "MEAN_ANOMALY": 250.6352, "EPHEMERIS_TYPE": 0, "CLASSIFICATION_TYPE": "U", "NORAD_CAT_ID": 36441, "ELEMENT_SET_NO": 999, "REV_AT_EPOCH": 86824, "BSTAR": 0.00053695, "MEAN_MOTION_DOT": 9.058e-05, "MEAN_MOTION_DDOT": 0}, "tle": {"line1": "1 36441U 93036BAQ 25337.36831338  .00009058  00000+0  53695-3 0  9996", "line2": "2 36441  73.8356   9.2398 0108665 110.6530 250.6352 15.06561199868249"}}, "geometry": {"type": "Point", "coordinates": [-109.21441812793681, -71.88810346253689]}}, {"type": "Feature", "properties": {"norad_id": 36442, "name": "COSMOS 2251 DEB", "group": "cosmos-2251-debris", "lat": 73.71265874183494, "lon": 158.12446746771604, "alt_km": 485.89890241322246, "timestamp": "2025-12-03T19:33:07.374557+00:00", "meta": {"OBJECT_NAME": "COSMOS 2251 DEB", "OBJECT_ID": "1993-036BAR", "EPOCH": "2025-11-30T23:26:58.990560", "MEAN_MOTION": 15.24721511, "ECCENTRICITY": 0.00074124, "INCLINATION": 73.9503, "RA_OF_ASC_NODE": 64.3117, "ARG_OF_PERICENTER": 319.957, "MEAN_ANOMALY": 40.1082, "EPHEMERIS_TYPE": 0, "CLASSIFICATION_TYPE": "U", "NORAD_CAT_ID": 36442, "ELEMENT_SET_NO": 999, "REV_AT_EPOCH": 85736, "BSTAR": 0.0052461948, "MEAN_MOTION_DOT": 0.00132297, "MEAN_MOTION_DDOT": 0}, "tle": {"line1": "1 36442U 93036BAR 25334.97707165  .00132297  00000+0  52462-2 0  9993", "line2": "2 36442  73.9503  64.3117 0007412 319.9570  40.1082 15.24721511857361"}}, "geometry": {"type": "Point", "coordinates": [158.12446746771604, 73.71265874183494]}}, {"type": "Feature", "properties": {"norad_id": 36451, "name": "COSMOS 2251 DEB", "group": "cosmos-2251-debris", "lat": -48.855302196404715, "lon": -169.52404892724616, "alt_km": 756.2354963609496, "timestamp": "2025-12-03T19:33:07.374567+00:00", "meta": {"OBJECT_NAME": "COSMOS 2251 DEB", "OBJECT_ID": "1993-036BBA", "EPOCH": "2025-12-02T18:46:44.967360", "MEAN_MOTION": 14.18689973, "ECCENTRICITY": 0.01846109, "INCLINATION": 73.9543, "RA_OF_ASC_NODE": 353.0964, "ARG_OF_PERICENTER": 179.7047, "MEAN_ANOMALY": 180.4241, "EPHEMERIS_TYPE": 0, "CLASSIFICATION_TYPE": "U", "NORAD_CAT_ID": 36451, "ELEMENT_SET_NO": 999, "REV_AT_EPOCH": 84084, "BSTAR": 0.00098989344, "MEAN_MOTION_DOT": 2.407e-05, "MEAN_MOTION_DDOT": 0}, "tle": {"line1": "1 36451U 93036BBA 25336.78246490  .00002407  00000+0  98989-3 0  9997", "line2": "2 36451  73.9543 353.0964 0184610 179.7047 180.4241 14.18689973840847"}}, "geometry": {"type": "Point", "coordinates": [-169.52404892724616, -48.855302196404715]}}, {"type": "Feature", "properties": {"norad_id": 36453, "name": "COSMOS 2251 DEB", "group": "cosmos-2251-debris", "lat": 57.73194164258069, "lon": -37.84590609849466, "alt_km": 675.0296294268037, "timestamp": "2025-12-03T19:33:07.374577+00:00", "meta": {"OBJECT_NAME": "COSMOS 2251 DEB", "OBJECT_ID": "1993-036BBC", "EPOCH": "2025-12-03T12:32:18.587904", "MEAN_MOTION": 14.52499194, "ECCENTRICITY": 0.0070241, "INCLINATION": 73.9225, "RA_OF_ASC_NODE": 169.8873, "ARG_OF_PERICENTER": 75.794, "MEAN_ANOMALY": 314.5029, "EPHEMERIS_TYPE": 0, "CLASSIFICATION_TYPE": "U", "NORAD_CAT_ID": 36453, "ELEMENT_SET_NO": 999, "REV_AT_EPOCH": 84334, "BSTAR": 0.0012059, "MEAN_MOTION_DOT": 5.059e-05, "MEAN_MOTION_DDOT": 0}, "tle": {"line1": "1 36453U 93036BBC 25337.52243736  .00005059  00000+0  12059-2 0  9991", "line2": "2 36453  73.9225 169.8873 0070241  75.7940 314.5029 14.52499194843343"}}, "geometry": {"type": "Point", "coordinates": [-37.84590609849466, 57.73194164258069]}}, {"type": "Feature", "properties": {"norad_id": 36459, "name": "COSMOS 2251 DEB", "group": "cosmos-2251-debris", "lat": 21.002790936945225, "lon": -170.37921044063003, "alt_km": 743.9378203484703, "timestamp": "2025-12-03T19:33:07.374587+00:00", "meta": {"OBJECT_NAME": "COSMOS 2251 DEB", "OBJECT_ID": "1993-036BBJ", "EPOCH": "2025-11-27T21:25:14.011392", "MEAN_MOTION": 14.2626117, "ECCENTRICITY": 0.0114133, "INCLINATION": 74.0487, "RA_OF_ASC_NODE": 26.6161, "ARG_OF_PERICENTER": 126.4072, "MEAN_ANOMALY": 234.7668, "EPHEMERIS_TYPE": 0, "CLASSIFICATION_TYPE": "U", "NORAD_CAT_ID": 36459, "ELEMENT_SET_NO": 999, "REV_AT_EPOCH": 7670, "BSTAR": 0.0017749, "MEAN_MOTION_DOT": 4.537e-05, "MEAN_MOTION_DDOT": 0}, "tle": {"line1": "1 36459U 93036BBJ 25331.89252328  .00004537  00000+0  17749-2 0  9999", "line2": "2 36459  74.0487  26.6161 0114133 126.4072 234.7668 14.26261170 76702"}}, "geometry": {"type": "Point", "coordinates": [-170.37921044063003, 21.002790936945225]}}, {"type": "Feature", "properties": {"norad_id": 36470, "name": "COSMOS 2251 DEB", "group": "cosmos-2251-debris", "lat": 35.19913762527781, "lon": 81.14770293898869, "alt_km": 535.3060929263847, "timestamp": "2025-12-03T19:33:07.374597+00:00", "meta": {"OBJECT_NAME": "COSMOS 2251 DEB", "OBJECT_ID": "1993-036BBV", "EPOCH": "2025-12-02T03:03:18.136800", "MEAN_MOTION": 15.05586615, "ECCENTRICITY": 0.00218493, "INCLINATION": 73.8455, "RA_OF_ASC_NODE": 276.4446, "ARG_OF_PERICENTER": 104.1241, "MEAN_ANOMALY": 256.2378, "EPHEMERIS_TYPE": 0, "CLASSIFICATION_TYPE": "U", "NORAD_CAT_ID": 36470, "ELEMENT_SET_NO": 999, "REV_AT_EPOCH": 65934, "BSTAR": 0.0040110233, "MEAN_MOTION_DOT": 0.00058582, "MEAN_MOTION_DDOT": 0}, "tle": {"line1": "1 36470U 93036BBV 25336.12729325  .00058582  00000+0  40110-2 0  9996", "line2": "2 36470  73.8455 276.4446 0021849 104.1241 256.2378 15.05586615659346"}}, "geometry": {"type": "Point", "coordinates": [81.14770293898869, 35.19913762527781]}}, {"type": "Feature", "properties": {"norad_id": 36528, "name": "COSMOS 2251 DEB", "group": "cosmos-2251-debris", "lat": 44.28287719266656, "lon": -34.74565617290883, "alt_km": 774.1932438067779, "timestamp": "2025-12-03T19:33:07.374607+00:00", "meta": {"OBJECT_NAME": "COSMOS 2251 DEB", "OBJECT_ID": "1993-036BCN", "EPOCH": "2025-11-28T19:45:32.756256", "MEAN_MOTION": 14.30521775, "ECCENTRICITY": 0.00858193, "INCLINATION": 74.0168, "RA_OF_ASC_NODE": 170.5765, "ARG_OF_PERICENTER": 223.2164, "MEAN_ANOMALY": 136.2231, "EPHEMERIS_TYPE": 0, "CLASSIFICATION_TYPE": "U", "NORAD_CAT_ID": 36528, "ELEMENT_SET_NO": 999, "REV_AT_EPOCH": 64228, "BSTAR": 0.00075224171, "MEAN_MOTION_DOT": 2.015e-05, "MEAN_MOTION_DDOT": 0}, "tle": {"line1": "1 36528U 93036BCN 25332.82329579  .00002015  00000+0  75224-3 0  9995", "line2": "2 36528  74.0168 170.5765 0085819 223.2164 136.2231 14.30521775642289"}}, "geometry": {"type": "Point", "coordinates": [-34.74565617290883, 44.28287719266656]}}]}